QIANFAN-65              
1 62795U 25016L   25342.80513153  .00000207  00000+0  30145-3 0  9999
2 62795  88.9759 103.4652 0013426   1.4243 358.6944 13.50982994 46715
QIANFAN-66              
1 62796U 25016M   25342.83389187  .00000203  00000+0  29605-3 0  9996
2 62796  88.9779 103.4316 0014400 356.2021   3.9018 13.50975744 46765
QIANFAN-67              
1 62797U 25016N   25342.83815733  .00000196  00000+0  28563-3 0  9991
2 62797  88.9769 103.4572 0014564   3.3439 356.7806 13.50979910 46733
QIANFAN-68              
1 62798U 25016P   25342.82985896  .00000197  00000+0  28718-3 0  9992
2 62798  88.9773 103.5031 0014568   1.5123 358.6070 13.50982275 46714
QIANFAN-69              
1 62799U 25016Q   25342.84636119  .00000201  00000+0  29225-3 0  9996
2 62799  88.9752 103.3716 0015350   2.3079 357.8140 13.50985139 46754
QIANFAN-70              
1 62800U 25016R   25342.78869381  .00000210  00000+0  30611-3 0  9992
2 62800  88.9773 103.5152 0014693 352.6670   7.4264 13.50976013 46704
QIANFAN-71              
1 62801U 25016S   25342.78455455  .00000207  00000+0  30228-3 0  9996
2 62801  88.9767 103.4954 0015376   6.1501 353.9836 13.50983127 46708
QIANFAN-72              
1 62802U 25016T   25342.80102830  .00000198  00000+0  28815-3 0  9994
2 62802  88.9757 103.5074 0018837  12.3097 347.8510 13.50983079 46691
